FALCON 9 DEB            
1 52315U 22041BG  22130.70969620  .00235863  33039-4  56547-3 0  9991
2 52315  53.2066 278.6136 0016092 343.7993  16.2520 15.95865359  3037
FALCON 9 DEB            
1 52316U 22041BH  22130.69419086  .00278547  42581-4  60642-3 0  9995
2 52316  53.2059 278.5140 0012329 336.7739  23.2732 15.97675316  3030
FALCON 9 DEB            
1 52317U 22041BJ  22130.68708053  .00332897  57162-4  67455-3 0  9999
2 52317  53.2080 278.4713 0011896 349.0325  11.0445 15.98928629  3031
CREW DRAGON 4           
1 52318U 22042A   22130.42084063  .00006101  00000+0  11473-3 0  9990
2 52318  51.6430 163.6198 0006737  83.4519  51.1552 15.50011757339328
2022-043A               
1 52320U 22043A   22130.80012566  .00006425  00000+0  27660-3 0  9999
2 52320  97.4732 206.4192 0012314 214.1219 262.3606 15.22892460  1770
2022-043B               
1 52321U 22043B   22130.85818670  .00022081  00000+0  89633-3 0  9999
2 52321  97.4724 206.4923 0012805 240.9964 230.9724 15.24535911  1783
2022-043C               
1 52322U 22043C   22130.85664699  .00006887  00000+0  28280-3 0  9997
2 52322  97.4727 206.4918 0012650 246.8316 221.2521 15.24460938  1789
2022-043D               
1 52323U 22043D   22130.83334586  .00013802  00000+0  25520-3 0  9994
2 52323  97.5635 207.0805 0088788 343.2925 126.0854 15.44834868  1807
2022-043E               
1 52324U 22043E   22130.84058089  .00053797  00000+0  19994-2 0  9991
2 52324  97.4642 206.5041 0018739 262.7354 207.7984 15.27183210  1788
2022-043F               
1 52325U 22043F   22130.78371713  .00028359  00000+0  16945-2 0  9996
2 52325  97.2206 205.7732 0112367 174.8197 185.4238 15.05801352  1741
2022-043G               
1 52326U 22043G   22130.79781903  .00016589  00000+0  14815-2 0  9990
2 52326  97.2939 205.5583 0159652 125.3312 236.2888 14.86652389  1721
2022-043H               
1 52327U 22043H   22130.78884381  .00022424  00000+0  13404-2 0  9992
2 52327  97.7093 206.3847 0120895 177.3438 182.8455 15.05056493  1758
2022-043J               
1 52328U 22043J   22130.80286225  .00018027  00000+0  16236-2 0  9999
2 52328  97.7274 206.0839 0162591 126.6967 234.9274 14.86009938  1715
COSMOS 2555             
1 52330U 22044A   22130.77757323  .00323985  50900-4  40339-3 0  9994
2 52330  96.4339 220.8374 0010608 231.4543 251.2731 16.07643591  1736
STARLINK-3889           
1 52331U 22045A   22130.75001157 -.00114218  00000+0 -81813-3 0  9993
2 52331  53.2144  22.5186 0001165  99.7645 210.9351 15.73266996  2234
STARLINK-3831           
1 52332U 22045B   22130.75001157 -.00020804  00000+0 -14401-3 0  9990
2 52332  53.2141  22.5219 0001103 100.9216 207.9956 15.73227928  2239
STARLINK-3847           
1 52333U 22045C   22130.75001157 -.00084504  00000+0 -60199-3 0  9993
2 52333  53.2144  22.5206 0001197  97.2800 212.2031 15.73267768  2238
STARLINK-3880           
1 52334U 22045D   22130.75001157  .00036832  00000+0  26568-3 0  9995
2 52334  53.2141  22.5171 0001336  95.6141 215.4614 15.73201206  2239
STARLINK-3814           
1 52335U 22045E   22130.75001157 -.00073738  00000+0 -52429-3 0  9999
2 52335  53.2143  22.5162 0001142  96.2109 215.6732 15.73257594  2232
STARLINK-3823           
1 52336U 22045F   22130.75001157  .00116361  00000+0  82902-3 0  9997
2 52336  53.2164  22.5112 0001126  92.8360 219.7110 15.73002537  2234
STARLINK-3797           
1 52337U 22045G   22130.75001157 -.00029425  00000+0 -20549-3 0  9993
2 52337  53.2141  22.5196 0001042 101.0744 209.0086 15.73254955  2246
STARLINK-3815           
1 52338U 22045H   22130.75001157  .00033202  00000+0  24029-3 0  9997
2 52338  53.2141  22.5107 0001366  89.4714 224.5431 15.73176000  2233
STARLINK-3792           
1 52339U 22045J   22130.75001157  .00038578  00000+0  27778-3 0  9993
2 52339  53.2141  22.5127 0000385 110.5295 202.9666 15.73220350  2245
STARLINK-3818           
1 52340U 22045K   22130.75001157 -.00069652  00000+0 -49436-3 0  9999
2 52340  53.2139  22.5065 0001157  97.7961 218.2538 15.73275841  2231
STARLINK-3843           
1 52341U 22045L   22130.75001157 -.00006374  00000+0 -40934-4 0  9997
2 52341  53.2142  22.5132 0001087 104.4974 208.5303 15.73256769  2233
STARLINK-3850           
1 52342U 22045M   22130.75001157 -.00028426  00000+0 -19828-3 0  9997
2 52342  53.2139  22.5036 0001227  94.6511 222.5988 15.73261102  2238
STARLINK-3849           
1 52343U 22045N   22130.75001157  .00015117  00000+0  11176-3 0  9997
2 52343  53.2141  22.5092 0001023  90.3246 224.5385 15.73235828  2235
STARLINK-3851           
1 52344U 22045P   22130.75001157  .00005778  00000+0  45430-4 0  9991
2 52344  53.2139  22.5016 0001138  95.6687 222.6345 15.73265701  2231
STARLINK-3852           
1 52345U 22045Q   22130.75001157  .00033562  00000+0  24228-3 0  9995
2 52345  53.2141  22.5082 0001397 102.0775 213.2390 15.73230443  2237
STARLINK-3812           
1 52346U 22045R   22130.75001157  .00005028  00000+0  40156-4 0  9991
2 52346  53.2138  22.5001 0000894  92.8572 226.1817 15.73235890  2235
STARLINK-3826           
1 52347U 22045S   22130.75001157  .00037988  00000+0  27388-3 0  9993
2 52347  53.2139  22.5059 0000666  88.1195 228.3377 15.73198413  2230
STARLINK-3829           
1 52348U 22045T   22130.75001157 -.00012428  00000+0 -84223-4 0  9990
2 52348  53.2167  22.4949 0001099  83.8476 236.2168 15.73212656  2236
STARLINK-3819           
1 52349U 22045U   22130.75001157  .00038149  00000+0  27516-3 0  9998
2 52349  53.2139  22.5032 0001086  93.6669 223.9576 15.73185780  2232
STARLINK-3754           
1 52350U 22045V   22130.75001157 -.00039650  00000+0 -27864-3 0  9996
2 52350  53.2137  22.4964 0001210 104.2840 216.5313 15.73265002  2316
STARLINK-3816           
1 52351U 22045W   22130.75001157 -.00067669  00000+0 -47992-3 0  9992
2 52351  53.2138  22.4993 0001209  88.1431 231.4623 15.73282089  2239
STARLINK-3838           
1 52352U 22045X   22130.75001157 -.00037858  00000+0 -26585-3 0  9995
2 52352  53.2137  22.4924 0000977  93.7062 228.9101 15.73260908  2234
STARLINK-3807           
1 52353U 22045Y   22130.75001157 -.00002383  00000+0 -12568-4 0  9998
2 52353  53.2176  22.4925 0001108  93.5413 227.7196 15.73205709  2233
STARLINK-3876           
1 52354U 22045Z   22130.75001157  .00035450  00000+0  25602-3 0  9990
2 52354  53.2136  22.4878 0001065 101.3035 223.5193 15.73192026  2235
STARLINK-3877           
1 52355U 22045AA  22130.75001157 -.00039948  00000+0 -28093-3 0  9996
2 52355  53.2139  22.4936 0001019  96.5089 225.5053 15.73253371  2235
STARLINK-3801           
1 52356U 22045AB  22130.75001157  .00033142  00000+0  23934-3 0  9994
2 52356  53.2137  22.4896 0001262 109.3100 214.4984 15.73227621  2257
STARLINK-3821           
1 52357U 22045AC  22130.75001157 -.00067849  00000+0 -48111-3 0  9992
2 52357  53.2137  22.4914 0001005 108.1840 214.9878 15.73287716  2238
STARLINK-3837           
1 52358U 22045AD  22130.75001157 -.00060875  00000+0 -43070-3 0  9994
2 52358  53.2136  22.4836 0001252 104.6684 222.0816 15.73295026  2237
STARLINK-3853           
1 52359U 22045AE  22130.75001157 -.00090578  00000+0 -64535-3 0  9997
2 52359  53.2137  22.4889 0001310 103.3858 221.0084 15.73292471  2238
STARLINK-3824           
1 52360U 22045AF  22130.75001157  .00005945  00000+0  46668-4 0  9999
2 52360  53.2135  22.4812 0001220 101.3322 226.6432 15.73240382  2230
STARLINK-3728           
1 52361U 22045AG  22130.75001157 -.00003808  00000+0 -22720-4 0  9991
2 52361  53.2178  22.4835 0001145  99.5427 225.8906 15.73206598  2321
STARLINK-3848           
1 52362U 22045AH  22130.75001157 -.00003747  00000+0 -22289-4 0  9994
2 52362  53.2178  22.4769 0001200 109.9766 218.4372 15.73206558  2233
STARLINK-3830           
1 52363U 22045AJ  22130.75001157 -.00003913  00000+0 -23473-4 0  9996
2 52363  53.2178  22.4822 0001177 103.6768 222.3525 15.73206645  2231
STARLINK-3820           
1 52364U 22045AK  22130.75001157 -.00061671  00000+0 -43675-3 0  9997
2 52364  53.2136  22.4774 0001229 105.6346 224.0999 15.73277873  2239
STARLINK-3874           
1 52365U 22045AL  22130.75001157 -.00058904  00000+0 -41645-3 0  9998
2 52365  53.2136  22.4825 0001229 105.7279 221.6196 15.73298658  2239
STARLINK-3808           
1 52366U 22045AM  22130.75001157  .00033600  00000+0  24285-3 0  9994
2 52366  53.2140  22.4740 0000914 115.7225 215.0959 15.73200756  2239
STARLINK-3817           
1 52367U 22045AN  22130.75001157 -.00003801  00000+0 -22674-4 0  9998
2 52367  53.2178  22.4760 0001155 104.7343 224.2756 15.73206583  2231
STARLINK-3834           
1 52368U 22045AP  22130.75001157 -.00082211  00000+0 -58482-3 0  9996
2 52368  53.2146  22.4693 0001197 110.3604 222.3281 15.73289807  2233
STARLINK-3841           
1 52369U 22045AQ  22130.75001157 -.00041776  00000+0 -29400-3 0  9996
2 52369  53.2140  22.4763 0001040 109.1403 221.1857 15.73257172  2232
STARLINK-3827           
1 52370U 22045AR  22130.75001157  .00033945  00000+0  24543-3 0  9998
2 52370  53.2139  22.4729 0000596 116.9849 214.4204 15.73187381  2234
STARLINK-3798           
1 52371U 22045AS  22130.75001157  .00037656  00000+0  27161-3 0  9991
2 52371  53.2146  22.4712 0001574 102.3531 229.6563 15.73191301  2254
STARLINK-3796           
1 52372U 22045AT  22130.75001157  .00030605  00000+0  22211-3 0  9990
2 52372  53.2140  22.4673 0000590 114.8572 218.9174 15.73154376  2244
STARLINK-3550           
1 52373U 22045AU  22130.75001157  .00031663  00000+0  22939-3 0  9993
2 52373  53.2142  22.4655 0001099 113.2897 221.6999 15.73176980  2246
STARLINK-3762           
1 52374U 22045AV  22130.75001157  .00023192  00000+0  16884-3 0  9994
2 52374  53.2140  22.4659 0000888 110.3139 224.1639 15.73250514  2246
STARLINK-3785           
1 52375U 22045AW  22130.75001157  .00037790  00000+0  27257-3 0  9990
2 52375  53.2146  22.4685 0001258  98.7417 234.4567 15.73190418  2242
